start=new Date('2021-10-23T00:00:00.000Z').valueOf();
sats=[{"TIME_SYSTEM":"UTC","MEAN_ELEMENT_THEORY":"SGP4","ELEMENT_SET_NO":"999","COUNTRY_CODE":"US","GP_ID":"187933069","NORAD_CAT_ID":"48318","RCS_SIZE":"LARGE","MEAN_ANOMALY":"274.3018","REF_FRAME":"TEME","ECCENTRICITY":"0.00015120","ARG_OF_PERICENTER":"85.8144","TLE_LINE2":"2 48318  53.0536  79.7616 0001512  85.8144 274.3018 15.06401780 27021","TLE_LINE1":"1 48318U 21036AU  21295.69887399 -.00000459  00000-0 -11914-4 0  9994","REV_AT_EPOCH":"2702","INCLINATION":"53.0536","PERIOD":"95.592","LAUNCH_DATE":"2021-04-29","OBJECT_TYPE":"PAYLOAD","MEAN_MOTION_DDOT":"0.0000000000000","SEMIMAJOR_AXIS":"6925.343","PERIAPSIS":"546.161","DECAY_DATE":null,"CLASSIFICATION_TYPE":"U","CENTER_NAME":"EARTH","SITE":"AFETR","APOAPSIS":"548.255","OBJECT_NAME":"STARLINK-2509","MEAN_MOTION_DOT":"-0.00000459","EPOCH":"2021-10-22T16:46:22.712736","FILE":"3179071","MEAN_MOTION":"15.06401780","BSTAR":"-0.00001191400000","OBJECT_ID":"2021-036AU","EPHEMERIS_TYPE":"0","RA_OF_ASC_NODE":"79.7616"},{"REF_FRAME":"TEME","MEAN_ANOMALY":"279.6209","GP_ID":"187933319","RCS_SIZE":"LARGE","NORAD_CAT_ID":"48319","COUNTRY_CODE":"US","ECCENTRICITY":"0.00017340","TIME_SYSTEM":"UTC","MEAN_ELEMENT_THEORY":"SGP4","ELEMENT_SET_NO":"999","REV_AT_EPOCH":"2702","OBJECT_TYPE":"PAYLOAD","LAUNCH_DATE":"2021-04-29","PERIOD":"95.592","INCLINATION":"53.0541","ARG_OF_PERICENTER":"80.4975","TLE_LINE1":"1 48319U 21036AV  21295.69517975  .00000627  00000-0  60987-4 0  9994","TLE_LINE2":"2 48319  53.0541  79.7833 0001734  80.4975 279.6209 15.06401503 27021","CLASSIFICATION_TYPE":"U","DECAY_DATE":null,"PERIAPSIS":"546.008","SITE":"AFETR","CENTER_NAME":"EARTH","SEMIMAJOR_AXIS":"6925.344","MEAN_MOTION_DDOT":"0.0000000000000","EPHEMERIS_TYPE":"0","OBJECT_ID":"2021-036AV","BSTAR":"0.00006098700000","FILE":"3179071","MEAN_MOTION":"15.06401503","RA_OF_ASC_NODE":"79.7833","MEAN_MOTION_DOT":"0.00000627","EPOCH":"2021-10-22T16:41:03.530400","OBJECT_NAME":"STARLINK-2512","APOAPSIS":"548.410"},{"MEAN_MOTION_DOT":"0.00000977","EPOCH":"2021-10-22T16:35:45.409056","OBJECT_NAME":"STARLINK-2029","APOAPSIS":"548.291","RA_OF_ASC_NODE":"79.7880","EPHEMERIS_TYPE":"0","MEAN_MOTION":"15.06395890","FILE":"3179071","BSTAR":"0.00008449700000","OBJECT_ID":"2021-036AW","MEAN_MOTION_DDOT":"0.0000000000000","SEMIMAJOR_AXIS":"6925.361","SITE":"AFETR","CENTER_NAME":"EARTH","PERIAPSIS":"546.162","CLASSIFICATION_TYPE":"U","DECAY_DATE":null,"TLE_LINE1":"1 48320U 21036AW  21295.69149779  .00000977  00000-0  84497-4 0  9999","TLE_LINE2":"2 48320  53.0545  79.7880 0001537  82.7871 277.3292 15.06395890 27028","ARG_OF_PERICENTER":"82.7871","OBJECT_TYPE":"PAYLOAD","LAUNCH_DATE":"2021-04-29","INCLINATION":"53.0545","PERIOD":"95.592","REV_AT_EPOCH":"2702","TIME_SYSTEM":"UTC","MEAN_ELEMENT_THEORY":"SGP4","ELEMENT_SET_NO":"999","ECCENTRICITY":"0.00015370","MEAN_ANOMALY":"277.3292","REF_FRAME":"TEME","COUNTRY_CODE":"US","GP_ID":"187934071","RCS_SIZE":"LARGE","NORAD_CAT_ID":"48320"},{"CLASSIFICATION_TYPE":"U","DECAY_DATE":null,"PERIAPSIS":"546.242","SITE":"AFETR","CENTER_NAME":"EARTH","SEMIMAJOR_AXIS":"6925.356","MEAN_MOTION_DDOT":"0.0000000000000","OBJECT_ID":"2021-036AX","BSTAR":"0.00009111700000","FILE":"3179071","MEAN_MOTION":"15.06397567","EPHEMERIS_TYPE":"0","RA_OF_ASC_NODE":"79.8052","OBJECT_NAME":"STARLINK-2457","APOAPSIS":"548.200","MEAN_MOTION_DOT":"0.00001076","EPOCH":"2021-10-22T16:30:26.439264","GP_ID":"187934821","RCS_SIZE":"LARGE","NORAD_CAT_ID":"48321","COUNTRY_CODE":"US","REF_FRAME":"TEME","MEAN_ANOMALY":"274.2654","ECCENTRICITY":"0.00014140","MEAN_ELEMENT_THEORY":"SGP4","ELEMENT_SET_NO":"999","TIME_SYSTEM":"UTC","REV_AT_EPOCH":"2702","PERIOD":"95.592","INCLINATION":"53.0552","LAUNCH_DATE":"2021-04-29","OBJECT_TYPE":"PAYLOAD","ARG_OF_PERICENTER":"85.8497","TLE_LINE2":"2 48321  53.0552  79.8052 0001414  85.8497 274.2654 15.06397567 27022","TLE_LINE1":"1 48321U 21036AX  21295.68780601  .00001076  00000-0  91117-4 0  9992"},{"TLE_LINE2":"2 48322  53.0552  79.8189 0001752  88.5720 271.5469 15.06388803 27025","TLE_LINE1":"1 48322U 21036AY  21295.68412716 -.00001025  00000-0 -49909-4 0  9990","ARG_OF_PERICENTER":"88.5720","PERIOD":"95.593","INCLINATION":"53.0552","OBJECT_TYPE":"PAYLOAD","LAUNCH_DATE":"2021-04-29","REV_AT_EPOCH":"2702","ELEMENT_SET_NO":"999","MEAN_ELEMENT_THEORY":"SGP4","TIME_SYSTEM":"UTC","ECCENTRICITY":"0.00017520","GP_ID":"187933569","RCS_SIZE":"LARGE","NORAD_CAT_ID":"48322","COUNTRY_CODE":"US","REF_FRAME":"TEME","MEAN_ANOMALY":"271.5469","OBJECT_NAME":"STARLINK-2477","APOAPSIS":"548.461","MEAN_MOTION_DOT":"-0.00001025","EPOCH":"2021-10-22T16:25:08.586624","RA_OF_ASC_NODE":"79.8189","OBJECT_ID":"2021-036AY","MEAN_MOTION":"15.06388803","FILE":"3179071","BSTAR":"-0.00004990900000","EPHEMERIS_TYPE":"0","SEMIMAJOR_AXIS":"6925.383","MEAN_MOTION_DDOT":"0.0000000000000","SITE":"AFETR","CENTER_NAME":"EARTH","CLASSIFICATION_TYPE":"U","DECAY_DATE":null,"PERIAPSIS":"546.035"},{"CLASSIFICATION_TYPE":"U","DECAY_DATE":null,"PERIAPSIS":"546.182","SITE":"AFETR","CENTER_NAME":"EARTH","SEMIMAJOR_AXIS":"6925.342","MEAN_MOTION_DDOT":"0.0000000000000","EPHEMERIS_TYPE":"0","OBJECT_ID":"2021-036AZ","FILE":"3179071","MEAN_MOTION":"15.06402072","BSTAR":"-0.00003117100000","RA_OF_ASC_NODE":"79.8455","EPOCH":"2021-10-22T16:19:50.239776","MEAN_MOTION_DOT":"-0.00000746","APOAPSIS":"548.232","OBJECT_NAME":"STARLINK-2515","REF_FRAME":"TEME","MEAN_ANOMALY":"268.8017","GP_ID":"187933819","RCS_SIZE":"LARGE","NORAD_CAT_ID":"48323","COUNTRY_CODE":"US","ECCENTRICITY":"0.00014800","MEAN_ELEMENT_THEORY":"SGP4","ELEMENT_SET_NO":"999","TIME_SYSTEM":"UTC","REV_AT_EPOCH":"2702","LAUNCH_DATE":"2021-04-29","OBJECT_TYPE":"PAYLOAD","PERIOD":"95.592","INCLINATION":"53.0561","ARG_OF_PERICENTER":"91.3141","TLE_LINE1":"1 48323U 21036AZ  21295.68044259 -.00000746  00000-0 -31171-4 0  9995","TLE_LINE2":"2 48323  53.0561  79.8455 0001480  91.3141 268.8017 15.06402072 27022"},{"TLE_LINE1":"1 48324U 21036BA  21295.67676288  .00000975  00000-0  84392-4 0  9993","TLE_LINE2":"2 48324  53.0573  79.8745 0001499  87.6027 272.5134 15.06389188 27012","ARG_OF_PERICENTER":"87.6027","OBJECT_TYPE":"PAYLOAD","LAUNCH_DATE":"2021-04-29","INCLINATION":"53.0573","PERIOD":"95.593","REV_AT_EPOCH":"2701","MEAN_ELEMENT_THEORY":"SGP4","TIME_SYSTEM":"UTC","ELEMENT_SET_NO":"999","ECCENTRICITY":"0.00014990","MEAN_ANOMALY":"272.5134","REF_FRAME":"TEME","COUNTRY_CODE":"US","NORAD_CAT_ID":"48324","GP_ID":"187934571","RCS_SIZE":"LARGE","MEAN_MOTION_DOT":"0.00000975","EPOCH":"2021-10-22T16:14:32.312832","APOAPSIS":"548.285","OBJECT_NAME":"STARLINK-2527","RA_OF_ASC_NODE":"79.8745","EPHEMERIS_TYPE":"0","FILE":"3179071","BSTAR":"0.00008439200000","MEAN_MOTION":"15.06389188","OBJECT_ID":"2021-036BA","MEAN_MOTION_DDOT":"0.0000000000000","SEMIMAJOR_AXIS":"6925.382","CENTER_NAME":"EARTH","SITE":"AFETR","PERIAPSIS":"546.209","DECAY_DATE":null,"CLASSIFICATION_TYPE":"U"},{"OBJECT_ID":"2021-036BB","FILE":"3179071","BSTAR":"0.00008149400000","MEAN_MOTION":"15.06403158","EPHEMERIS_TYPE":"0","RA_OF_ASC_NODE":"79.8836","APOAPSIS":"548.524","OBJECT_NAME":"STARLINK-2495","MEAN_MOTION_DOT":"0.00000932","EPOCH":"2021-10-22T16:09:12.375360","DECAY_DATE":null,"CLASSIFICATION_TYPE":"U","PERIAPSIS":"545.884","CENTER_NAME":"EARTH","SITE":"AFETR","SEMIMAJOR_AXIS":"6925.339","MEAN_MOTION_DDOT":"0.0000000000000","REV_AT_EPOCH":"2702","PERIOD":"95.592","INCLINATION":"53.0565","LAUNCH_DATE":"2021-04-29","OBJECT_TYPE":"PAYLOAD","ARG_OF_PERICENTER":"87.9261","TLE_LINE2":"2 48325  53.0565  79.8836 0001906  87.9261 272.1946 15.06403158 27023","TLE_LINE1":"1 48325U 21036BB  21295.67305990  .00000932  00000-0  81494-4 0  9996","NORAD_CAT_ID":"48325","GP_ID":"187934322","RCS_SIZE":"LARGE","COUNTRY_CODE":"US","REF_FRAME":"TEME","MEAN_ANOMALY":"272.1946","ECCENTRICITY":"0.00019060","TIME_SYSTEM":"UTC","MEAN_ELEMENT_THEORY":"SGP4","ELEMENT_SET_NO":"999"},{"MEAN_MOTION_DDOT":"0.0000000000000","SEMIMAJOR_AXIS":"6925.302","SITE":"AFETR","CENTER_NAME":"EARTH","DECAY_DATE":null,"CLASSIFICATION_TYPE":"U","PERIAPSIS":"545.866","MEAN_MOTION_DOT":"0.00001314","EPOCH":"2021-10-22T16:03:54.611712","OBJECT_NAME":"STARLINK-2498","APOAPSIS":"548.467","RA_OF_ASC_NODE":"79.8852","EPHEMERIS_TYPE":"0","OBJECT_ID":"2021-036BC","FILE":"3179071","MEAN_MOTION":"15.06415290","BSTAR":"0.00010704000000","MEAN_ELEMENT_THEORY":"SGP4","TIME_SYSTEM":"UTC","ELEMENT_SET_NO":"999","ECCENTRICITY":"0.00018780","REF_FRAME":"TEME","MEAN_ANOMALY":"279.5049","GP_ID":"187933070","RCS_SIZE":"LARGE","NORAD_CAT_ID":"48326","COUNTRY_CODE":"US","TLE_LINE1":"1 48326U 21036BC  21295.66938208  .00001314  00000-0  10704-3 0  9990","TLE_LINE2":"2 48326  53.0552  79.8852 0001878  80.6152 279.5049 15.06415290 27020","ARG_OF_PERICENTER":"80.6152","OBJECT_TYPE":"PAYLOAD","LAUNCH_DATE":"2021-04-29","PERIOD":"95.591","INCLINATION":"53.0552","REV_AT_EPOCH":"2702"},{"REV_AT_EPOCH":"2702","LAUNCH_DATE":"2021-04-29","OBJECT_TYPE":"PAYLOAD","PERIOD":"95.593","INCLINATION":"53.0552","ARG_OF_PERICENTER":"87.7286","TLE_LINE1":"1 48327U 21036BD  21295.66570091 -.00000753  00000-0 -31661-4 0  9997","TLE_LINE2":"2 48327  53.0552  79.9003 0001326  87.7286 272.3855 15.06389817 27025","REF_FRAME":"TEME","MEAN_ANOMALY":"272.3855","GP_ID":"187933320","RCS_SIZE":"LARGE","NORAD_CAT_ID":"48327","COUNTRY_CODE":"US","ECCENTRICITY":"0.00013260","MEAN_ELEMENT_THEORY":"SGP4","TIME_SYSTEM":"UTC","ELEMENT_SET_NO":"999","EPHEMERIS_TYPE":"0","OBJECT_ID":"2021-036BD","MEAN_MOTION":"15.06389817","FILE":"3179071","BSTAR":"-0.00003166100000","RA_OF_ASC_NODE":"79.9003","MEAN_MOTION_DOT":"-0.00000753","EPOCH":"2021-10-22T15:58:36.558624","APOAPSIS":"548.163","OBJECT_NAME":"STARLINK-2502","CLASSIFICATION_TYPE":"U","DECAY_DATE":null,"PERIAPSIS":"546.326","SITE":"AFETR","CENTER_NAME":"EARTH","SEMIMAJOR_AXIS":"6925.380","MEAN_MOTION_DDOT":"0.0000000000000"}];
